CCSDS_OMM_VERS = 2.0
CREATION_DATE  = 
ORIGINATOR     = 

OBJECT_NAME    = ERS-1
OBJECT_ID      = 1991-050A
CENTER_NAME    = EARTH
REF_FRAME      = TEME
TIME_SYSTEM    = UTC
MEAN_ELEMENT_THEORY = SGP/SGP4

EPOCH          = 2026-03-23T22:43:44.603328
MEAN_MOTION    = 14.39459647
ECCENTRICITY   = .00324364
INCLINATION    = 98.7871
RA_OF_ASC_NODE = 101.5395
ARG_OF_PERICENTER = 158.2184
MEAN_ANOMALY   = 202.0390

EPHEMERIS_TYPE = 0
CLASSIFICATION_TYPE = U
NORAD_CAT_ID   = 21574
ELEMENT_SET_NO = 999
REV_AT_EPOCH   = 81778
BSTAR          = .1107649E-3
MEAN_MOTION_DOT = .301E-5
MEAN_MOTION_DDOT = 0

CCSDS_OMM_VERS = 2.0
CREATION_DATE  = 
ORIGINATOR     = 

OBJECT_NAME    = ARIANE 40 R/B
OBJECT_ID      = 1991-050F
CENTER_NAME    = EARTH
REF_FRAME      = TEME
TIME_SYSTEM    = UTC
MEAN_ELEMENT_THEORY = SGP/SGP4

EPOCH          = 2026-03-23T21:28:24.735072
MEAN_MOTION    = 14.42903362
ECCENTRICITY   = .00038454
INCLINATION    = 98.1983
RA_OF_ASC_NODE = 134.5961
ARG_OF_PERICENTER = 49.9269
MEAN_ANOMALY   = 310.2258

EPHEMERIS_TYPE = 0
CLASSIFICATION_TYPE = U
NORAD_CAT_ID   = 21610
ELEMENT_SET_NO = 999
REV_AT_EPOCH   = 82104
BSTAR          = .98612629E-4
MEAN_MOTION_DOT = .288E-5
MEAN_MOTION_DDOT = 0

CCSDS_OMM_VERS = 2.0
CREATION_DATE  = 
ORIGINATOR     = 

OBJECT_NAME    = INTERCOSMOS 25
OBJECT_ID      = 1991-086A
CENTER_NAME    = EARTH
REF_FRAME      = TEME
TIME_SYSTEM    = UTC
MEAN_ELEMENT_THEORY = SGP/SGP4

EPOCH          = 2026-03-23T20:32:46.304736
MEAN_MOTION    = 12.12047294
ECCENTRICITY   = .14867198
INCLINATION    = 82.6022
RA_OF_ASC_NODE = 301.4450
ARG_OF_PERICENTER = 86.4092
MEAN_ANOMALY   = 290.5198

EPHEMERIS_TYPE = 0
CLASSIFICATION_TYPE = U
NORAD_CAT_ID   = 21819
ELEMENT_SET_NO = 999
REV_AT_EPOCH   = 49840
BSTAR          = .29687018E-3
MEAN_MOTION_DOT = .1552E-4
MEAN_MOTION_DDOT = 0

CCSDS_OMM_VERS = 2.0
CREATION_DATE  = 
ORIGINATOR     = 

OBJECT_NAME    = SL-8 R/B
OBJECT_ID      = 1992-008B
CENTER_NAME    = EARTH
REF_FRAME      = TEME
TIME_SYSTEM    = UTC
MEAN_ELEMENT_THEORY = SGP/SGP4

EPOCH          = 2026-03-23T21:52:43.231872
MEAN_MOTION    = 13.75969538
ECCENTRICITY   = .00359301
INCLINATION    = 82.9224
RA_OF_ASC_NODE = 257.1956
ARG_OF_PERICENTER = 94.9169
MEAN_ANOMALY   = 15.6395

EPHEMERIS_TYPE = 0
CLASSIFICATION_TYPE = U
NORAD_CAT_ID   = 21876
ELEMENT_SET_NO = 999
REV_AT_EPOCH   = 71137
BSTAR          = -.13153024E-4
MEAN_MOTION_DOT = .3E-7
MEAN_MOTION_DDOT = 0

CCSDS_OMM_VERS = 2.0
CREATION_DATE  = 
ORIGINATOR     = 

OBJECT_NAME    = SL-8 R/B
OBJECT_ID      = 1992-020B
CENTER_NAME    = EARTH
REF_FRAME      = TEME
TIME_SYSTEM    = UTC
MEAN_ELEMENT_THEORY = SGP/SGP4

EPOCH          = 2026-03-23T21:34:39.199584
MEAN_MOTION    = 13.75550357
ECCENTRICITY   = .00276097
INCLINATION    = 82.9314
RA_OF_ASC_NODE = 143.2121
ARG_OF_PERICENTER = 257.2194
MEAN_ANOMALY   = 276.2381

EPHEMERIS_TYPE = 0
CLASSIFICATION_TYPE = U
NORAD_CAT_ID   = 21938
ELEMENT_SET_NO = 999
REV_AT_EPOCH   = 70308
BSTAR          = .19278689E-4
MEAN_MOTION_DOT = .34E-6
MEAN_MOTION_DDOT = 0

CCSDS_OMM_VERS = 2.0
CREATION_DATE  = 
ORIGINATOR     = 

OBJECT_NAME    = USA 81
OBJECT_ID      = 1992-023A
CENTER_NAME    = EARTH
REF_FRAME      = TEME
TIME_SYSTEM    = UTC
MEAN_ELEMENT_THEORY = SGP/SGP4

EPOCH          = 2026-03-23T20:09:27.367776
MEAN_MOTION    = 14.32372337
ECCENTRICITY   = .00019974
INCLINATION    = 85.0057
RA_OF_ASC_NODE = 123.2759
ARG_OF_PERICENTER = 68.9246
MEAN_ANOMALY   = 291.2160

EPHEMERIS_TYPE = 0
CLASSIFICATION_TYPE = U
NORAD_CAT_ID   = 21949
ELEMENT_SET_NO = 999
REV_AT_EPOCH   = 9681
BSTAR          = .5148034E-4
MEAN_MOTION_DOT = .159E-5
MEAN_MOTION_DDOT = 0

CCSDS_OMM_VERS = 2.0
CREATION_DATE  = 
ORIGINATOR     = 

OBJECT_NAME    = COSMOS 2219
OBJECT_ID      = 1992-076A
CENTER_NAME    = EARTH
REF_FRAME      = TEME
TIME_SYSTEM    = UTC
MEAN_ELEMENT_THEORY = SGP/SGP4

EPOCH          = 2026-03-23T22:50:14.099712
MEAN_MOTION    = 14.14092473
ECCENTRICITY   = .00181567
INCLINATION    = 71.0635
RA_OF_ASC_NODE = 348.2576
ARG_OF_PERICENTER = 186.5921
MEAN_ANOMALY   = 173.4966

EPHEMERIS_TYPE = 0
CLASSIFICATION_TYPE = U
NORAD_CAT_ID   = 22219
ELEMENT_SET_NO = 999
REV_AT_EPOCH   = 72039
BSTAR          = -.69562297E-4
MEAN_MOTION_DOT = -.18E-5
MEAN_MOTION_DDOT = 0

CCSDS_OMM_VERS = 2.0
CREATION_DATE  = 
ORIGINATOR     = 

OBJECT_NAME    = SL-16 R/B
OBJECT_ID      = 1992-076B
CENTER_NAME    = EARTH
REF_FRAME      = TEME
TIME_SYSTEM    = UTC
MEAN_ELEMENT_THEORY = SGP/SGP4

EPOCH          = 2026-03-23T23:30:32.205888
MEAN_MOTION    = 14.16863196
ECCENTRICITY   = .00106211
INCLINATION    = 71.0006
RA_OF_ASC_NODE = 158.2749
ARG_OF_PERICENTER = 69.7565
MEAN_ANOMALY   = 102.6749

EPHEMERIS_TYPE = 0
CLASSIFICATION_TYPE = U
NORAD_CAT_ID   = 22220
ELEMENT_SET_NO = 999
REV_AT_EPOCH   = 72385
BSTAR          = .11474404E-3
MEAN_MOTION_DOT = .182E-5
MEAN_MOTION_DDOT = 0

CCSDS_OMM_VERS = 2.0
CREATION_DATE  = 
ORIGINATOR     = 

OBJECT_NAME    = COSMOS 2221
OBJECT_ID      = 1992-080A
CENTER_NAME    = EARTH
REF_FRAME      = TEME
TIME_SYSTEM    = UTC
MEAN_ELEMENT_THEORY = SGP/SGP4

EPOCH          = 2026-03-23T22:46:29.255808
MEAN_MOTION    = 14.96255768
ECCENTRICITY   = .00151938
INCLINATION    = 82.5003
RA_OF_ASC_NODE = 265.4181
ARG_OF_PERICENTER = 140.5035
MEAN_ANOMALY   = 219.7298

EPHEMERIS_TYPE = 0
CLASSIFICATION_TYPE = U
NORAD_CAT_ID   = 22236
ELEMENT_SET_NO = 999
REV_AT_EPOCH   = 78292
BSTAR          = .17513225E-3
MEAN_MOTION_DOT = .2007E-4
MEAN_MOTION_DDOT = 0

CCSDS_OMM_VERS = 2.0
CREATION_DATE  = 
ORIGINATOR     = 

OBJECT_NAME    = SL-16 R/B
OBJECT_ID      = 1992-093B
CENTER_NAME    = EARTH
REF_FRAME      = TEME
TIME_SYSTEM    = UTC
MEAN_ELEMENT_THEORY = SGP/SGP4

EPOCH          = 2026-03-23T22:39:39.077856
MEAN_MOTION    = 14.15451426
ECCENTRICITY   = .00063521
INCLINATION    = 71.0236
RA_OF_ASC_NODE = 334.3444
ARG_OF_PERICENTER = 279.5052
MEAN_ANOMALY   = 80.5353

EPHEMERIS_TYPE = 0
CLASSIFICATION_TYPE = U
NORAD_CAT_ID   = 22285
ELEMENT_SET_NO = 999
REV_AT_EPOCH   = 71517
BSTAR          = .19954746E-3
MEAN_MOTION_DOT = .342E-5
MEAN_MOTION_DDOT = 0

CCSDS_OMM_VERS = 2.0
CREATION_DATE  = 
ORIGINATOR     = 

OBJECT_NAME    = COSMOS 2228
OBJECT_ID      = 1992-094A
CENTER_NAME    = EARTH
REF_FRAME      = TEME
TIME_SYSTEM    = UTC
MEAN_ELEMENT_THEORY = SGP/SGP4

EPOCH          = 2026-03-23T21:20:06.497376
MEAN_MOTION    = 14.97260453
ECCENTRICITY   = .0016646
INCLINATION    = 82.5182
RA_OF_ASC_NODE = 223.7141
ARG_OF_PERICENTER = 252.6695
MEAN_ANOMALY   = 107.2707

EPHEMERIS_TYPE = 0
CLASSIFICATION_TYPE = U
NORAD_CAT_ID   = 22286
ELEMENT_SET_NO = 999
REV_AT_EPOCH   = 77818
BSTAR          = .21015188E-3
MEAN_MOTION_DOT = .2466E-4
MEAN_MOTION_DDOT = 0

CCSDS_OMM_VERS = 2.0
CREATION_DATE  = 
ORIGINATOR     = 

OBJECT_NAME    = SL-16 R/B
OBJECT_ID      = 1993-016B
CENTER_NAME    = EARTH
REF_FRAME      = TEME
TIME_SYSTEM    = UTC
MEAN_ELEMENT_THEORY = SGP/SGP4

EPOCH          = 2026-03-23T13:29:13.024320
MEAN_MOTION    = 14.15306165
ECCENTRICITY   = .00123573
INCLINATION    = 71.0081
RA_OF_ASC_NODE = 186.0472
ARG_OF_PERICENTER = 296.1171
MEAN_ANOMALY   = 63.8680

EPHEMERIS_TYPE = 0
CLASSIFICATION_TYPE = U
NORAD_CAT_ID   = 22566
ELEMENT_SET_NO = 999
REV_AT_EPOCH   = 70413
BSTAR          = -.8379463E-4
MEAN_MOTION_DOT = -.211E-5
MEAN_MOTION_DDOT = 0

