ERS-1                   
1 21574U 91050A   26082.94704402  .00000301  00000+0  11076-3 0  9993
2 21574  98.7871 101.5395 0032436 158.2184 202.0390 14.39459647817781
ARIANE 40 R/B           
1 21610U 91050F   26082.89473073  .00000288  00000+0  98613-4 0  9992
2 21610  98.1983 134.5961 0003845  49.9269 310.2258 14.42903362821048
INTERCOSMOS 25          
1 21819U 91086A   26082.85609149  .00001552  00000+0  29687-3 0  9992
2 21819  82.6022 301.4450 1486719  86.4092 290.5198 12.12047294498406
SL-8 R/B                
1 21876U 92008B   26082.91161148  .00000003  00000+0 -13153-4 0  9992
2 21876  82.9224 257.1956 0035930  94.9169  15.6395 13.75969538711370
SL-8 R/B                
1 21938U 92020B   26082.89906481  .00000034  00000+0  19279-4 0  9997
2 21938  82.9314 143.2121 0027609 257.2194 276.2381 13.75550357703088
USA 81                  
1 21949U 92023A   26082.83990009  .00000159  00000+0  51480-4 0  9993
2 21949  85.0057 123.2759 0001997  68.9246 291.2160 14.32372337 96812
COSMOS 2219             
1 22219U 92076A   26082.95155208 -.00000180  00000+0 -69562-4 0  9995
2 22219  71.0635 348.2576 0018156 186.5921 173.4966 14.14092473720390
SL-16 R/B               
1 22220U 92076B   26082.97953942  .00000182  00000+0  11474-3 0  9998
2 22220  71.0006 158.2749 0010621  69.7565 102.6749 14.16863196723857
COSMOS 2221             
1 22236U 92080A   26082.94894972  .00002007  00000+0  17513-3 0  9992
2 22236  82.5003 265.4181 0015193 140.5035 219.7298 14.96255768782928
SL-16 R/B               
1 22285U 92093B   26082.94420229  .00000342  00000+0  19955-3 0  9992
2 22285  71.0236 334.3444 0006352 279.5052  80.5353 14.15451426715179
COSMOS 2228             
1 22286U 92094A   26082.88896409  .00002466  00000+0  21015-3 0  9993
2 22286  82.5182 223.7141 0016646 252.6695 107.2707 14.97260453778182
SL-16 R/B               
1 22566U 93016B   26082.56195630 -.00000211  00000+0 -83795-4 0  9994
2 22566  71.0081 186.0472 0012357 296.1171  63.8680 14.15306165704131
